IRIDIUM 171             
1 43929U 19002H   25112.59669358  .00000430  00000+0  14654-3 0  9990
2 43929  86.4025 169.6308 0002541 101.2447 258.9034 14.34222128328674
IRIDIUM 170             
1 43930U 19002J   25112.58098900  .00001401  00000+0  21834-3 0  9997
2 43930  86.6146 169.4032 0002037  95.7930 264.3519 14.72239853337379
IRIDIUM 167             
1 43931U 19002K   25112.72989420  .00000428  00000+0  14586-3 0  9994
2 43931  86.4016 169.3344 0002253 105.9366 254.2078 14.34218245328699
IRIDIUM 181             
1 56726U 23068S   25112.76235506  .00000727  00000+0  20995-3 0  9993
2 56726  86.4520 232.3629 0002737 102.9325 257.2182 14.43305526101799
IRIDIUM 177             
1 56727U 23068T   25112.57018254  .00002321  00000+0  30188-3 0  9999
2 56727  86.2008 168.5172 0002499 101.1206 259.0296 14.80239393104143
IRIDIUM 174             
1 56728U 23068U   25112.57580646  .00001749  00000+0  27075-3 0  9993
2 56728  86.6143 169.5177 0001996  94.9208 265.2237 14.72688084104135
IRIDIUM 178             
1 56729U 23068V   25112.62685404  .00002757  00000+0  35959-3 0  9998
2 56729  86.6618 201.0017 0002631  90.8473 269.3050 14.80212454104157
IRIDIUM 179             
1 56730U 23068W   25112.68911361  .00002802  00000+0  36516-3 0  9991
2 56730  86.6840 208.6797 0002106 101.4361 258.7097 14.80245485104160
